STARLINK-2460           
1 48120U 21027AE  26068.55193043  .00001444  00000+0  60877-4 0  9993
2 48120  53.1595 168.4494 0001173  88.5814 271.5321 15.30193110272463
TEVEL2-1                
1 63217U 25052H   26068.64782323  .00020683  00000+0  70600-3 0  9994
2 63217  97.3991 324.7682 0004767 104.8919 255.2849 15.30341923 54855
